IRIDIUM 144             
1 43249U 18030A   23290.40160949  .00000457  00000+0  15615-3 0  9999
2 43249  86.3985 337.4088 0002112  96.5198 263.6238 14.34219210290569
IRIDIUM 149             
1 43250U 18030B   23290.40795573  .00000077  00000+0  20542-4 0  9992
2 43250  86.3983 337.3838 0002101 102.5046 257.6385 14.34215151290587
IRIDIUM 157             
1 43251U 18030C   23290.49674946  .00000450  00000+0  15347-3 0  9993
2 43251  86.3985 337.3784 0002323  88.6070 271.5392 14.34219439290572
IRIDIUM 140             
1 43252U 18030D   23290.51577411  .00000468  00000+0  15998-3 0  9997
2 43252  86.3984 337.3852 0001918  95.6500 264.4914 14.34220447290632
IRIDIUM 145             
1 43253U 18030E   23290.50309399  .00000445  00000+0  15200-3 0  9996
2 43253  86.3985 337.3650 0002159 103.2733 256.8704 14.34219182290560
IRIDIUM 146             
1 43254U 18030F   23290.41429900  .00000450  00000+0  15372-3 0  9994
2 43254  86.3986 337.4176 0002236 101.8535 258.2912 14.34218433290561
IRIDIUM 148             
1 43255U 18030G   23289.68490002  .00000370  00000+0  12508-3 0  9992
2 43255  86.3989 337.7510 0002406  99.7315 260.4153 14.34216718290498
IRIDIUM 142             
1 43256U 18030H   23290.49040943  .00000468  00000+0  16018-3 0  9997
2 43256  86.3983 337.3387 0002278  96.3323 263.8132 14.34219007290577
